{"fetched_at":"2026-07-13T07:48:36.858Z","source":"https://celestrak.org/NORAD/elements/gp.php?NAME=PLEIADES&FORMAT=JSON","constellation":"pleiades-neo","records":[{"OBJECT_NAME":"PLEIADES NEO 3","OBJECT_ID":"2021-034A","EPOCH":"2026-07-12T20:21:02.423808","CLASSIFICATION_TYPE":"U","MEAN_MOTION":14.81680302,"ECCENTRICITY":0.0001398,"INCLINATION":97.8943,"RA_OF_ASC_NODE":268.2454,"ARG_OF_PERICENTER":93.5096,"MEAN_ANOMALY":266.6276,"EPHEMERIS_TYPE":0,"NORAD_CAT_ID":48268,"ELEMENT_SET_NO":999,"REV_AT_EPOCH":28145,"BSTAR":0.00011601,"MEAN_MOTION_DOT":0.00000861,"MEAN_MOTION_DDOT":0},{"OBJECT_NAME":"PLEIADES NEO 4","OBJECT_ID":"2021-073E","EPOCH":"2026-07-12T19:32:24.832320","CLASSIFICATION_TYPE":"U","MEAN_MOTION":14.81673647,"ECCENTRICITY":0.000131,"INCLINATION":97.894,"RA_OF_ASC_NODE":268.2082,"ARG_OF_PERICENTER":92.3488,"MEAN_ANOMALY":267.7875,"EPHEMERIS_TYPE":0,"NORAD_CAT_ID":49070,"ELEMENT_SET_NO":999,"REV_AT_EPOCH":26516,"BSTAR":0.000018285,"MEAN_MOTION_DOT":9.2e-7,"MEAN_MOTION_DDOT":0}]}
